[{"OBJECT_NAME":"STARLINK-3095","OBJECT_ID":"2021-082AG","EPOCH":"2026-03-09T22:38:33.971136","MEAN_MOTION":14.98327274,"ECCENTRICITY":0.00029021,"INCLINATION":69.9984,"RA_OF_ASC_NODE":293.7986,"ARG_OF_PERICENTER":265.0882,"MEAN_ANOMALY":94.9946,"EPHEMERIS_TYPE":0,"CLASSIFICATION_TYPE":"U","NORAD_CAT_ID":49160,"ELEMENT_SET_NO":999,"REV_AT_EPOCH":24708,"BSTAR":-1.0400937e-5,"MEAN_MOTION_DOT":-2.17e-6,"MEAN_MOTION_DDOT":0},{"OBJECT_NAME":"RAPIDEYE 5","OBJECT_ID":"2008-040B","EPOCH":"2026-03-09T15:17:22.403904","MEAN_MOTION":15.02179038,"ECCENTRICITY":0.0014834,"INCLINATION":97.3944,"RA_OF_ASC_NODE":91.3825,"ARG_OF_PERICENTER":86.9831,"MEAN_ANOMALY":273.3091,"EPHEMERIS_TYPE":0,"CLASSIFICATION_TYPE":"U","NORAD_CAT_ID":33313,"ELEMENT_SET_NO":999,"REV_AT_EPOCH":95055,"BSTAR":0.00014028,"MEAN_MOTION_DOT":1.794e-5,"MEAN_MOTION_DDOT":0}]
